start=new Date('2022-10-21T00:00:00.000Z').valueOf();
sats=[{"MEAN_ANOMALY":"338.4115","NORAD_CAT_ID":"45086","TLE_LINE2":"2 45086  52.9929  15.3682 0003574  21.7030 338.4115 15.21784617150865","REV_AT_EPOCH":"15086","ECCENTRICITY":"0.00035740","OBJECT_ID":"2020-006AU","ARG_OF_PERICENTER":"21.7030","EPOCH":"2022-10-20T11:36:44.044704","SEMIMAJOR_AXIS":"6878.595","CLASSIFICATION_TYPE":"U","RA_OF_ASC_NODE":"15.3682","RCS_SIZE":"LARGE","REF_FRAME":"TEME","COUNTRY_CODE":"US","DECAY_DATE":null,"OBJECT_NAME":"STARLINK-1181","MEAN_ELEMENT_THEORY":"SGP4","PERIOD":"94.626","EPHEMERIS_TYPE":"0","BSTAR":"0.00173250000000","LAUNCH_DATE":"2020-01-29","TIME_SYSTEM":"UTC","MEAN_MOTION":"15.21784617","ELEMENT_SET_NO":"999","MEAN_MOTION_DOT":"0.00039704","INCLINATION":"52.9929","MEAN_MOTION_DDOT":"0.0000000000000","CENTER_NAME":"EARTH","GP_ID":"215687342","TLE_LINE1":"1 45086U 20006AU  22293.48384311  .00039704  00000-0  17325-2 0  9994","OBJECT_TYPE":"PAYLOAD","SITE":"AFETR","FILE":"3625892","PERIAPSIS":"498.001","APOAPSIS":"502.918"},{"MEAN_MOTION_DOT":"0.00002701","INCLINATION":"53.0558","MEAN_MOTION_DDOT":"0.0000000000000","MEAN_MOTION":"15.06400658","ELEMENT_SET_NO":"999","APOAPSIS":"548.302","PERIAPSIS":"546.121","GP_ID":"215721820","CENTER_NAME":"EARTH","OBJECT_TYPE":"PAYLOAD","TLE_LINE1":"1 45087U 20006AV  22293.70076990  .00002701  00000-0  20017-3 0  9991","SITE":"AFETR","FILE":"3626396","EPOCH":"2022-10-20T16:49:06.519360","ARG_OF_PERICENTER":"58.5708","SEMIMAJOR_AXIS":"6925.347","RA_OF_ASC_NODE":"35.1861","CLASSIFICATION_TYPE":"U","RCS_SIZE":"LARGE","REF_FRAME":"TEME","MEAN_ANOMALY":"301.5435","NORAD_CAT_ID":"45087","TLE_LINE2":"2 45087  53.0558  35.1861 0001575  58.5708 301.5435 15.06400658150739","REV_AT_EPOCH":"15073","ECCENTRICITY":"0.00015750","OBJECT_ID":"2020-006AV","DECAY_DATE":null,"OBJECT_NAME":"STARLINK-1185","PERIOD":"95.592","MEAN_ELEMENT_THEORY":"SGP4","EPHEMERIS_TYPE":"0","BSTAR":"0.00020017000000","LAUNCH_DATE":"2020-01-29","TIME_SYSTEM":"UTC","COUNTRY_CODE":"US"},{"TIME_SYSTEM":"UTC","LAUNCH_DATE":"2020-01-29","EPHEMERIS_TYPE":"0","BSTAR":"0.00013939000000","PERIOD":"95.592","MEAN_ELEMENT_THEORY":"SGP4","DECAY_DATE":null,"OBJECT_NAME":"STARLINK-1183","COUNTRY_CODE":"US","RCS_SIZE":"LARGE","REF_FRAME":"TEME","RA_OF_ASC_NODE":"35.6725","CLASSIFICATION_TYPE":"U","SEMIMAJOR_AXIS":"6925.350","EPOCH":"2022-10-20T14:09:52.354656","ARG_OF_PERICENTER":"66.3102","OBJECT_ID":"2020-006AW","ECCENTRICITY":"0.00014890","REV_AT_EPOCH":"15071","TLE_LINE2":"2 45088  53.0549  35.6725 0001489  66.3102 293.8043 15.06399636150712","NORAD_CAT_ID":"45088","MEAN_ANOMALY":"293.8043","APOAPSIS":"548.246","PERIAPSIS":"546.183","FILE":"3625892","SITE":"AFETR","OBJECT_TYPE":"PAYLOAD","TLE_LINE1":"1 45088U 20006AW  22293.59018929  .00001795  00000-0  13939-3 0  9994","CENTER_NAME":"EARTH","GP_ID":"215686341","MEAN_MOTION_DDOT":"0.0000000000000","INCLINATION":"53.0549","MEAN_MOTION_DOT":"0.00001795","ELEMENT_SET_NO":"999","MEAN_MOTION":"15.06399636"},{"APOAPSIS":"548.277","PERIAPSIS":"546.149","SITE":"AFETR","FILE":"3626396","OBJECT_TYPE":"PAYLOAD","TLE_LINE1":"1 45089U 20006AX  22293.86296102 -.00000073  00000-0  14025-4 0  9993","GP_ID":"215722802","CENTER_NAME":"EARTH","MEAN_MOTION_DDOT":"0.0000000000000","INCLINATION":"53.0565","MEAN_MOTION_DOT":"-0.00000073","ELEMENT_SET_NO":"999","MEAN_MOTION":"15.06400168","LAUNCH_DATE":"2020-01-29","TIME_SYSTEM":"UTC","EPHEMERIS_TYPE":"0","BSTAR":"0.00001402500000","DECAY_DATE":null,"OBJECT_NAME":"STARLINK-1136","MEAN_ELEMENT_THEORY":"SGP4","PERIOD":"95.592","COUNTRY_CODE":"US","REF_FRAME":"TEME","RCS_SIZE":"LARGE","RA_OF_ASC_NODE":"34.5509","CLASSIFICATION_TYPE":"U","SEMIMAJOR_AXIS":"6925.348","ARG_OF_PERICENTER":"67.0251","EPOCH":"2022-10-20T20:42:39.832128","OBJECT_ID":"2020-006AX","REV_AT_EPOCH":"15076","ECCENTRICITY":"0.00015370","MEAN_ANOMALY":"293.0900","NORAD_CAT_ID":"45089","TLE_LINE2":"2 45089  53.0565  34.5509 0001537  67.0251 293.0900 15.06400168150768"},{"MEAN_MOTION":"15.06410880","ELEMENT_SET_NO":"999","MEAN_MOTION_DOT":"0.00003093","INCLINATION":"53.0561","MEAN_MOTION_DDOT":"0.0000000000000","GP_ID":"215687841","CENTER_NAME":"EARTH","SITE":"AFETR","FILE":"3625892","TLE_LINE1":"1 45090U 20006AY  22293.44180517  .00003093  00000-0  22639-3 0  9994","OBJECT_TYPE":"PAYLOAD","APOAPSIS":"548.117","PERIAPSIS":"546.244","MEAN_ANOMALY":"292.1308","NORAD_CAT_ID":"45090","TLE_LINE2":"2 45090  53.0561  36.3500 0001352  67.9824 292.1308 15.06410880150693","OBJECT_ID":"2020-006AY","REV_AT_EPOCH":"15069","ECCENTRICITY":"0.00013520","SEMIMAJOR_AXIS":"6925.315","EPOCH":"2022-10-20T10:36:11.966688","ARG_OF_PERICENTER":"67.9824","RCS_SIZE":"LARGE","REF_FRAME":"TEME","RA_OF_ASC_NODE":"36.3500","CLASSIFICATION_TYPE":"U","COUNTRY_CODE":"US","EPHEMERIS_TYPE":"0","BSTAR":"0.00022639000000","OBJECT_NAME":"STARLINK-1176","DECAY_DATE":null,"MEAN_ELEMENT_THEORY":"SGP4","PERIOD":"95.591","LAUNCH_DATE":"2020-01-29","TIME_SYSTEM":"UTC"},{"LAUNCH_DATE":"2020-01-29","TIME_SYSTEM":"UTC","BSTAR":"0.00010847000000","EPHEMERIS_TYPE":"0","OBJECT_NAME":"STARLINK-1137","DECAY_DATE":null,"MEAN_ELEMENT_THEORY":"SGP4","PERIOD":"95.592","COUNTRY_CODE":"US","REF_FRAME":"TEME","RCS_SIZE":"LARGE","RA_OF_ASC_NODE":"35.2797","CLASSIFICATION_TYPE":"U","SEMIMAJOR_AXIS":"6925.337","EPOCH":"2022-10-20T16:22:33.579840","ARG_OF_PERICENTER":"66.2991","OBJECT_ID":"2020-006BA","REV_AT_EPOCH":"15072","ECCENTRICITY":"0.00014880","MEAN_ANOMALY":"293.8153","NORAD_CAT_ID":"45092","TLE_LINE2":"2 45092  53.0557  35.2797 0001488  66.2991 293.8153 15.06403752150723","PERIAPSIS":"546.172","APOAPSIS":"548.233","SITE":"AFETR","FILE":"3626396","OBJECT_TYPE":"PAYLOAD","TLE_LINE1":"1 45092U 20006BA  22293.68233310  .00001335  00000-0  10847-3 0  9997","CENTER_NAME":"EARTH","GP_ID":"215722319","INCLINATION":"53.0557","MEAN_MOTION_DDOT":"0.0000000000000","MEAN_MOTION_DOT":"0.00001335","ELEMENT_SET_NO":"999","MEAN_MOTION":"15.06403752"},{"COUNTRY_CODE":"US","BSTAR":"0.00011686000000","EPHEMERIS_TYPE":"0","PERIOD":"95.592","MEAN_ELEMENT_THEORY":"SGP4","DECAY_DATE":null,"OBJECT_NAME":"STARLINK-1142","TIME_SYSTEM":"UTC","LAUNCH_DATE":"2020-01-29","NORAD_CAT_ID":"45093","TLE_LINE2":"2 45093  53.0550  35.2922 0001546  70.4807 289.6349 15.06399054150724","MEAN_ANOMALY":"289.6349","OBJECT_ID":"2020-006BB","ECCENTRICITY":"0.00015460","REV_AT_EPOCH":"15072","SEMIMAJOR_AXIS":"6925.351","ARG_OF_PERICENTER":"70.4807","EPOCH":"2022-10-20T16:17:15.449856","RCS_SIZE":"LARGE","REF_FRAME":"TEME","CLASSIFICATION_TYPE":"U","RA_OF_ASC_NODE":"35.2922","GP_ID":"215722569","CENTER_NAME":"EARTH","FILE":"3626396","SITE":"AFETR","OBJECT_TYPE":"PAYLOAD","TLE_LINE1":"1 45093U 20006BB  22293.67865104  .00001459  00000-0  11686-3 0  9998","APOAPSIS":"548.287","PERIAPSIS":"546.146","MEAN_MOTION":"15.06399054","ELEMENT_SET_NO":"999","MEAN_MOTION_DOT":"0.00001459","MEAN_MOTION_DDOT":"0.0000000000000","INCLINATION":"53.0550"},{"NORAD_CAT_ID":"45094","TLE_LINE2":"2 45094  53.0565  35.8117 0001488  69.6141 290.5008 15.06409066150716","MEAN_ANOMALY":"290.5008","OBJECT_ID":"2020-006BC","ECCENTRICITY":"0.00014880","REV_AT_EPOCH":"15071","SEMIMAJOR_AXIS":"6925.321","ARG_OF_PERICENTER":"69.6141","EPOCH":"2022-10-20T13:26:02.589216","REF_FRAME":"TEME","RCS_SIZE":"LARGE","RA_OF_ASC_NODE":"35.8117","CLASSIFICATION_TYPE":"U","COUNTRY_CODE":"US","EPHEMERIS_TYPE":"0","BSTAR":"0.00007530300000","MEAN_ELEMENT_THEORY":"SGP4","PERIOD":"95.592","DECAY_DATE":null,"OBJECT_NAME":"STARLINK-1146","TIME_SYSTEM":"UTC","LAUNCH_DATE":"2020-01-29","MEAN_MOTION":"15.06409066","ELEMENT_SET_NO":"999","MEAN_MOTION_DOT":"0.00000841","INCLINATION":"53.0565","MEAN_MOTION_DDOT":"0.0000000000000","CENTER_NAME":"EARTH","GP_ID":"215687091","FILE":"3625892","SITE":"AFETR","OBJECT_TYPE":"PAYLOAD","TLE_LINE1":"1 45094U 20006BC  22293.55975219  .00000841  00000-0  75303-4 0  9996","APOAPSIS":"548.216","PERIAPSIS":"546.155"},{"MEAN_MOTION":"15.06404068","ELEMENT_SET_NO":"999","MEAN_MOTION_DOT":"0.00001226","MEAN_MOTION_DDOT":"0.0000000000000","INCLINATION":"53.0571","CENTER_NAME":"EARTH","GP_ID":"215687343","TLE_LINE1":"1 45095U 20006BD  22293.56343118  .00001226  00000-0  10116-3 0  9993","OBJECT_TYPE":"PAYLOAD","FILE":"3625892","SITE":"AFETR","APOAPSIS":"548.367","PERIAPSIS":"546.035","TLE_LINE2":"2 45095  53.0571  35.7857 0001684  57.4542 302.6610 15.06404068150713","NORAD_CAT_ID":"45095","MEAN_ANOMALY":"302.6610","ECCENTRICITY":"0.00016840","REV_AT_EPOCH":"15071","OBJECT_ID":"2020-006BD","ARG_OF_PERICENTER":"57.4542","EPOCH":"2022-10-20T13:31:20.453952","SEMIMAJOR_AXIS":"6925.336","RA_OF_ASC_NODE":"35.7857","CLASSIFICATION_TYPE":"U","RCS_SIZE":"LARGE","REF_FRAME":"TEME","COUNTRY_CODE":"US","PERIOD":"95.592","MEAN_ELEMENT_THEORY":"SGP4","OBJECT_NAME":"STARLINK-1147","DECAY_DATE":null,"EPHEMERIS_TYPE":"0","BSTAR":"0.00010116000000","TIME_SYSTEM":"UTC","LAUNCH_DATE":"2020-01-29"},{"OBJECT_TYPE":"PAYLOAD","TLE_LINE1":"1 45096U 20006BE  22293.55701926  .00001323  00000-0  10769-3 0  9990","SITE":"AFETR","FILE":"3625892","CENTER_NAME":"EARTH","GP_ID":"215687579","APOAPSIS":"548.429","PERIAPSIS":"545.976","ELEMENT_SET_NO":"999","MEAN_MOTION":"15.06403717","INCLINATION":"53.0556","MEAN_MOTION_DDOT":"0.0000000000000","MEAN_MOTION_DOT":"0.00001323","COUNTRY_CODE":"US","LAUNCH_DATE":"2020-01-29","TIME_SYSTEM":"UTC","OBJECT_NAME":"STARLINK-1152","DECAY_DATE":null,"MEAN_ELEMENT_THEORY":"SGP4","PERIOD":"95.592","EPHEMERIS_TYPE":"0","BSTAR":"0.00010769000000","REV_AT_EPOCH":"15070","ECCENTRICITY":"0.00017710","OBJECT_ID":"2020-006BE","MEAN_ANOMALY":"297.0505","TLE_LINE2":"2 45096  53.0556  35.8244 0001771  63.0665 297.0505 15.06403717150703","NORAD_CAT_ID":"45096","CLASSIFICATION_TYPE":"U","RA_OF_ASC_NODE":"35.8244","RCS_SIZE":"LARGE","REF_FRAME":"TEME","EPOCH":"2022-10-20T13:22:06.464064","ARG_OF_PERICENTER":"63.0665","SEMIMAJOR_AXIS":"6925.337"}];
